OBJECT_NAME,OBJECT_ID,EPOCH,MEAN_MOTION,ECCENTRICITY,INCLINATION,RA_OF_ASC_NODE,ARG_OF_PERICENTER,MEAN_ANOMALY,EPHEMERIS_TYPE,CLASSIFICATION_TYPE,NORAD_CAT_ID,ELEMENT_SET_NO,REV_AT_EPOCH,BSTAR,MEAN_MOTION_DOT,MEAN_MOTION_DDOT
ALOS-2,2014-029A,2026-06-05T15:23:51.985824,14.79463866,.0001635,97.9217,253.9710,98.7898,261.3499,0,U,39766,999,64987,.25859E-3,.188E-4,0
KAZEOSAT 2,2014-033A,2026-06-05T07:22:23.276640,14.85454459,.0008966,97.5408,356.5462,9.0708,351.0668,0,U,40010,999,64719,.72500908E-4,.575E-5,0
HODOYOSHI-4,2014-033B,2026-06-05T06:24:26.332416,14.88099401,.00235137,97.5450,341.6648,349.0703,11.0000,0,U,40011,999,64703,.16307648E-3,.1455E-4,0
DEIMOS-2,2014-033D,2026-06-05T06:13:07.026240,14.93689584,.00019321,97.5835,31.1660,58.6867,301.4542,0,U,40013,999,63594,.15916049E-3,.1629E-4,0
HODOYOSHI-3,2014-033F,2026-06-05T04:39:37.527840,14.85362555,.00337198,97.6409,319.7187,36.3620,323.9878,0,U,40015,999,64584,.13512778E-3,.1121E-4,0
SPOT 7,2014-034A,2026-06-05T07:59:25.685088,14.60947703,.00011794,98.0628,219.1293,83.0359,277.0976,0,U,40053,999,63540,.10003156E-3,.445E-5,0
SKYSAT-B,2014-037D,2026-06-05T03:44:06.394848,14.87996119,.00047814,98.3831,114.4354,330.7388,29.3559,0,U,40072,999,64417,.18767132E-3,.1661E-4,0
WORLDVIEW-3 (WV-3),2014-048A,2026-06-05T05:46:59.909088,14.85001513,.0001857,97.8567,231.2388,44.2082,315.9281,0,U,40115,999,64013,.11616666E-3,.937E-5,0
GAOFEN-2,2014-049A,2026-06-05T06:49:31.660608,14.80887751,.00058764,98.0108,220.5025,274.3680,85.6860,0,U,40118,999,63747,.1465846E-3,.1079E-4,0
YAOGAN-21,2014-053A,2026-06-05T07:06:22.584672,15.26191091,.00096203,97.1478,197.0437,127.6508,232.5605,0,U,40143,999,65314,.26292769E-3,.6739E-4,0
YAOGAN-22,2014-063A,2026-06-05T04:04:15.206016,13.15530656,.0006064,100.7710,307.2439,212.8238,147.2497,0,U,40275,999,55823,-.5642949E-5,-.49E-6,0
ASNARO,2014-070A,2026-06-05T15:12:43.126272,15.19257360,.0004625,97.3448,233.0625,204.1237,155.9781,0,U,40298,999,64225,.43418E-3,.9093E-4,0
YAOGAN-24,2014-072A,2026-06-05T06:54:51.368256,14.76208235,.00128476,98.1479,293.5262,305.8423,54.1592,0,U,40310,999,62196,.16296418E-3,.1075E-4,0
CBERS 4,2014-079A,2026-06-05T07:51:16.408800,14.35506044,.00020696,98.3532,213.5304,75.9571,284.1845,0,U,40336,999,60225,.64973487E-4,.145E-5,0
YAOGAN-26,2014-088A,2026-06-05T07:08:04.219584,15.46860023,.00066509,97.0644,156.7896,92.9434,267.2577,0,U,40362,999,63586,.5558832E-3,.27923E-3,0
SMAP,2015-003A,2026-06-05T06:01:04.264320,14.63355706,.00012587,98.1276,163.5145,90.8569,269.2778,0,U,40376,999,60587,.10234089E-3,.482E-5,0
KOMPSAT-3A,2015-014A,2026-06-05T06:18:18.728064,15.53434833,.00554811,97.6888,146.7585,218.0845,141.6481,0,U,40536,999,61996,.3314719E-3,.22362E-3,0
SENTINEL-2A,2015-028A,2026-06-05T07:50:16.404000,14.30820276,.0001062,98.5683,231.3459,83.8908,276.2396,0,U,40697,999,57203,.70138163E-4,.14E-5,0
GAOFEN-8,2015-030A,2026-06-05T07:20:20.006304,15.45501420,.00078457,97.6912,348.9655,231.9271,128.1270,0,U,40701,999,60961,.34357999E-3,.16412E-3,0
CARBONITE 1 (CBNT-1),2015-032D,2026-06-05T07:29:12.497280,14.83548370,.00139851,97.6501,334.8758,339.6975,20.3682,0,U,40718,999,58758,.19581338E-3,.1564E-4,0
YAOGAN-27,2015-040A,2026-06-05T05:53:16.505952,13.16070675,.00074256,100.1150,143.1468,240.4318,119.6056,0,U,40878,999,51609,.13849205E-2,.484E-5,0
GAOFEN-9 01,2015-047A,2026-06-05T07:42:44.132832,14.82860432,.00274494,97.6286,192.5549,175.8065,184.3385,0,U,40894,999,57843,.13234432E-3,.1028E-4,0
YAOGAN-28,2015-064A,2026-06-05T06:25:48.699264,15.27258025,.00096261,97.3065,294.7749,227.1789,132.8642,0,U,41026,999,58886,.25577827E-3,.6767E-4,0
YAOGAN-29,2015-069A,2026-06-05T07:16:53.112000,14.83075149,.00029513,98.0027,184.9173,73.8562,286.2976,0,U,41038,999,56886,.78951807E-4,.589E-5,0
KENT RIDGE 1,2015-077B,2026-06-05T04:18:09.811008,15.23057212,.00083235,14.9812,355.2827,68.6369,291.4841,0,U,41167,999,57926,.16884839E-3,.4867E-4,0
GAOFEN-4,2015-083A,2026-06-05T07:10:22.020672,1.00269892,.00043337,0.3267,83.7808,109.2320,274.0078,0,U,41194,999,3841,0,-.322E-5,0
JASON-3,2016-002A,2026-06-05T06:35:15.301824,12.87627712,.00086033,66.0390,150.8805,273.2459,86.7576,0,U,41240,999,48571,-.795299E-6,-.62E-6,0
SENTINEL-3A,2016-011A,2026-06-05T07:04:03.756288,14.26736615,.00013124,98.6251,223.8484,105.6361,254.4964,0,U,41335,999,53636,.66799641E-4,.118E-5,0
ZIYUAN 3-02 (ZY 3-02),2016-033A,2026-06-05T06:50:53.537568,15.21360605,.00119062,97.3832,232.2869,336.6615,23.4079,0,U,41556,999,55617,.24903345E-3,.5522E-4,0
CARTOSAT-2C,2016-040A,2026-06-05T14:24:18.002304,15.19223374,.0009719,97.4487,216.7370,168.3871,191.7590,0,U,41599,999,55195,.22234E-3,.4619E-4,0
