ALOS-2                  
1 39766U 14029A   26156.64157391  .00001880  00000+0  25859-3 0  9991
2 39766  97.9217 253.9710 0001635  98.7898 261.3499 14.79463866649871
KAZEOSAT 2              
1 40010U 14033A   26156.30721385  .00000575  00000+0  72501-4 0  9990
2 40010  97.5408 356.5462 0008966   9.0708 351.0668 14.85454459647199
HODOYOSHI-4             
1 40011U 14033B   26156.26697144  .00001455  00000+0  16308-3 0  9991
2 40011  97.5450 341.6648 0023513 349.0703  11.0000 14.88099401647036
DEIMOS-2                
1 40013U 14033D   26156.25910910  .00001629  00000+0  15916-3 0  9998
2 40013  97.5835  31.1660 0001932  58.6867 301.4542 14.93689584635942
HODOYOSHI-3             
1 40015U 14033F   26156.19418435  .00001121  00000+0  13513-3 0  9996
2 40015  97.6409 319.7187 0033719  36.3620 323.9878 14.85362555645847
SPOT 7                  
1 40053U 14034A   26156.33293617  .00000445  00000+0  10003-3 0  9997
2 40053  98.0628 219.1293 0001179  83.0359 277.0976 14.60947703635407
SKYSAT-B                
1 40072U 14037D   26156.15562957  .00001661  00000+0  18767-3 0  9993
2 40072  98.3831 114.4354 0004781 330.7388  29.3559 14.87996119644171
WORLDVIEW-3 (WV-3)      
1 40115U 14048A   26156.24097117  .00000937  00000+0  11617-3 0  9996
2 40115  97.8567 231.2388 0001857  44.2082 315.9281 14.85001513640134
GAOFEN-2                
1 40118U 14049A   26156.28439422  .00001079  00000+0  14658-3 0  9999
2 40118  98.0108 220.5025 0005876 274.3680  85.6860 14.80887751637473
YAOGAN-21               
1 40143U 14053A   26156.29609473  .00006739  00000+0  26293-3 0  9994
2 40143  97.1478 197.0437 0009620 127.6508 232.5605 15.26191091653144
YAOGAN-22               
1 40275U 14063A   26156.16962044 -.00000049  00000+0 -56429-5 0  9999
2 40275 100.7710 307.2439 0006064 212.8238 147.2497 13.15530656558238
ASNARO                  
1 40298U 14070A   26156.63383248  .00009093  00000+0  43418-3 0  9995
2 40298  97.3448 233.0625 0004625 204.1237 155.9781 15.19257360642251
YAOGAN-24               
1 40310U 14072A   26156.28809454  .00001075  00000+0  16296-3 0  9991
2 40310  98.1479 293.5262 0012847 305.8423  54.1592 14.76208235621962
CBERS 4                 
1 40336U 14079A   26156.32727325  .00000145  00000+0  64973-4 0  9990
2 40336  98.3532 213.5304 0002069  75.9571 284.1845 14.35506044602256
YAOGAN-26               
1 40362U 14088A   26156.29727106  .00027923  00000+0  55588-3 0  9996
2 40362  97.0644 156.7896 0006650  92.9434 267.2577 15.46860023635866
SMAP                    
1 40376U 15003A   26156.25074380  .00000482  00000+0  10234-3 0  9994
2 40376  98.1276 163.5145 0001258  90.8569 269.2778 14.63355706605870
KOMPSAT-3A              
1 40536U 15014A   26156.26271676  .00022362  00000+0  33147-3 0  9991
2 40536  97.6888 146.7585 0055481 218.0845 141.6481 15.53434833619968
SENTINEL-2A             
1 40697U 15028A   26156.32657875  .00000140  00000+0  70138-4 0  9992
2 40697  98.5683 231.3459 0001062  83.8908 276.2396 14.30820276572034
GAOFEN-8                
1 40701U 15030A   26156.30578711  .00016412  00000+0  34358-3 0  9992
2 40701  97.6912 348.9655 0007845 231.9271 128.1270 15.45501420609617
CARBONITE 1 (CBNT-1)    
1 40718U 15032D   26156.31195020  .00001564  00000+0  19581-3 0  9994
2 40718  97.6501 334.8758 0013985 339.6975  20.3682 14.83548370587583
YAOGAN-27               
1 40878U 15040A   26156.24532993  .00000484  00000+0  13849-2 0  9996
2 40878 100.1150 143.1468 0007425 240.4318 119.6056 13.16070675516099
GAOFEN-9 01             
1 40894U 15047A   26156.32134413  .00001028  00000+0  13234-3 0  9999
2 40894  97.6286 192.5549 0027449 175.8065 184.3385 14.82860432578435
YAOGAN-28               
1 41026U 15064A   26156.26792476  .00006767  00000+0  25578-3 0  9997
2 41026  97.3065 294.7749 0009626 227.1789 132.8642 15.27258025588864
YAOGAN-29               
1 41038U 15069A   26156.30339250  .00000589  00000+0  78952-4 0  9998
2 41038  98.0027 184.9173 0002951  73.8562 286.2976 14.83075149568860
KENT RIDGE 1            
1 41167U 15077B   26156.17928022  .00004867  00000+0  16885-3 0  9995
2 41167  14.9812 355.2827 0008323  68.6369 291.4841 15.23057212579268
GAOFEN-4                
1 41194U 15083A   26156.29886598 -.00000322  00000+0  00000+0 0  9997
2 41194   0.3267  83.7808 0004333 109.2320 274.0078  1.00269892 38414
JASON-3                 
1 41240U 16002A   26156.27448266 -.00000062  00000+0 -79530-6 0  9998
2 41240  66.0390 150.8805 0008603 273.2459  86.7576 12.87627712485710
SENTINEL-3A             
1 41335U 16011A   26156.29448792  .00000118  00000+0  66800-4 0  9993
2 41335  98.6251 223.8484 0001312 105.6361 254.4964 14.26736615536367
ZIYUAN 3-02 (ZY 3-02)   
1 41556U 16033A   26156.28534187  .00005522  00000+0  24903-3 0  9996
2 41556  97.3832 232.2869 0011906 336.6615  23.4079 15.21360605556172
CARTOSAT-2C             
1 41599U 16040A   26156.60020836  .00004619  00000+0  22234-3 0  9999
2 41599  97.4487 216.7370 0009719 168.3871 191.7590 15.19223374551959
